{
  "norad_id": 58717,
  "name": "STARLINK-31093",
  "history": [
    {
      "epoch": "2026-03-28T13:23:01.804992",
      "apogee_km": 476.06456296301167,
      "perigee_km": 474.2717383356021,
      "latitude_deg": -6.210904906704507,
      "longitude_deg": 105.23533887998201,
      "semi_major_axis_km": 6853.305150649307,
      "eccentricity": 0.0001308,
      "inclination_deg": 53.1602,
      "raan_deg": 142.3407,
      "arg_perigee_deg": 84.1627,
      "mean_anomaly_deg": 275.9523,
      "mean_motion_rev_day": 15.30215714
    }
  ]
}